STARLINK-5823           
1 55786U 23028AX  25221.85641558  .00000072  00000+0  13858-4 0  9997
2 55786  70.0008  18.6426 0003215 264.6496  95.4297 14.98335795135282
STARLINK-5811           
1 55787U 23028AY  25221.86475903  .00000887  00000+0  82151-4 0  9994
2 55787  70.0009  18.6722 0003112 268.6288  91.4514 14.98334503135286
STARLINK-5804           
1 55788U 23028AZ  25221.59355082  .00000361  00000+0  38038-4 0  9992
2 55788  70.0009  19.3311 0003056 268.6194  91.4615 14.98330900135258
STARLINK-5815           
1 55789U 23028BA  25221.56850301  .00000175  00000+0  22481-4 0  9992
2 55789  70.0006  19.2404 0002021 274.7498  85.3430 14.98333316135255
STARLINK-5813           
1 55790U 23028BB  25221.57285140 -.00000674  00000+0 -48729-4 0  9997
2 55790  70.0005  19.2574 0003106 269.6545  90.4258 14.98323385135255
STARLINK-5807           
1 55791U 23028BC  25221.58521850  .00000647  00000+0  61988-4 0  9990
2 55791  70.0008  19.3014 0002963 266.4328  93.6492 14.98332616135255
STARLINK-5856           
1 55914U 23037A   25221.86176852  .00001954  00000+0  17153-3 0  9992
2 55914  70.0001 118.7052 0002688 271.4835  88.6016 14.98329492132097
STARLINK-5859           
1 55915U 23037B   25221.84505176 -.00001916  00000+0 -15282-3 0  9997
2 55915  69.9998 118.6447 0002680 271.4709  88.6143 14.98343534132093
STARLINK-5796           
1 55916U 23037C   25221.45701704  .00000211  00000+0  25484-4 0  9991
2 55916  70.0003 119.6993 0003015 267.8151  92.2663 14.98332800131691
STARLINK-5855           
1 55917U 23037D   25221.91668981  .00228132  00000+0  26498-2 0  9990
2 55917  69.9760  54.0736 0007445 119.6578 178.6844 15.60824030133709
STARLINK-5867           
1 55918U 23037E   25220.91876475 -.00000173  00000+0 -66805-5 0  9993
2 55918  70.0004 121.0315 0002870 268.6587  91.4243 14.98330607131956
STARLINK-5871           
1 55919U 23037F   25221.84522307 -.00000024  00000+0  57889-5 0  9995
2 55919  70.0001 118.6450 0002862 272.2843  87.7988 14.98324684132091
STARLINK-5862           
1 55920U 23037G   25221.38168349  .00000360  00000+0  37944-4 0  9999
2 55920  70.0000  99.9595 0002643 268.8945  91.1911 14.98333547132176
STARLINK-5861           
1 55921U 23037H   25221.89511455 -.00000436  00000+0 -28760-4 0  9998
2 55921  69.9997 118.4173 0002651 270.0092  90.0763 14.98340072132102
STARLINK-5863           
1 55922U 23037J   25221.89929277  .00000343  00000+0  36527-4 0  9999
2 55922  70.0005 118.4339 0002843 265.8039  94.2795 14.98330236132108
STARLINK-5854           
1 55923U 23037K   25221.83671815  .00001694  00000+0  14971-3 0  9994
2 55923  69.9998 118.6151 0002622 275.0309  85.0551 14.98335401132094
STARLINK-5849           
1 55924U 23037L   25221.91160064  .00001366  00000+0  12228-3 0  9992
2 55924  69.9996  98.5967 0002828 274.3330  85.7506 14.98323056132593
