[{"OBJECT_NAME":"STARLINK-5823","OBJECT_ID":"2023-028AX","EPOCH":"2025-08-09T20:33:14.306112","MEAN_MOTION":14.98335795,"ECCENTRICITY":0.0003215,"INCLINATION":70.0008,"RA_OF_ASC_NODE":18.6426,"ARG_OF_PERICENTER":264.6496,"MEAN_ANOMALY":95.4297,"EPHEMERIS_TYPE":0,"CLASSIFICATION_TYPE":"U","NORAD_CAT_ID":55786,"ELEMENT_SET_NO":999,"REV_AT_EPOCH":13528,"BSTAR":1.3858e-5,"MEAN_MOTION_DOT":7.2e-7,"MEAN_MOTION_DDOT":0},{"OBJECT_NAME":"STARLINK-5811","OBJECT_ID":"2023-028AY","EPOCH":"2025-08-09T20:45:15.180192","MEAN_MOTION":14.98334503,"ECCENTRICITY":0.0003112,"INCLINATION":70.0009,"RA_OF_ASC_NODE":18.6722,"ARG_OF_PERICENTER":268.6288,"MEAN_ANOMALY":91.4514,"EPHEMERIS_TYPE":0,"CLASSIFICATION_TYPE":"U","NORAD_CAT_ID":55787,"ELEMENT_SET_NO":999,"REV_AT_EPOCH":13528,"BSTAR":8.2151e-5,"MEAN_MOTION_DOT":8.87e-6,"MEAN_MOTION_DDOT":0},{"OBJECT_NAME":"STARLINK-5804","OBJECT_ID":"2023-028AZ","EPOCH":"2025-08-09T14:14:42.790848","MEAN_MOTION":14.983309,"ECCENTRICITY":0.0003056,"INCLINATION":70.0009,"RA_OF_ASC_NODE":19.3311,"ARG_OF_PERICENTER":268.6194,"MEAN_ANOMALY":91.4615,"EPHEMERIS_TYPE":0,"CLASSIFICATION_TYPE":"U","NORAD_CAT_ID":55788,"ELEMENT_SET_NO":999,"REV_AT_EPOCH":13525,"BSTAR":3.8038e-5,"MEAN_MOTION_DOT":3.61e-6,"MEAN_MOTION_DDOT":0},{"OBJECT_NAME":"STARLINK-5815","OBJECT_ID":"2023-028BA","EPOCH":"2025-08-09T13:38:38.660064","MEAN_MOTION":14.98333316,"ECCENTRICITY":0.0002021,"INCLINATION":70.0006,"RA_OF_ASC_NODE":19.2404,"ARG_OF_PERICENTER":274.7498,"MEAN_ANOMALY":85.343,"EPHEMERIS_TYPE":0,"CLASSIFICATION_TYPE":"U","NORAD_CAT_ID":55789,"ELEMENT_SET_NO":999,"REV_AT_EPOCH":13525,"BSTAR":2.2481e-5,"MEAN_MOTION_DOT":1.75e-6,"MEAN_MOTION_DDOT":0},{"OBJECT_NAME":"STARLINK-5813","OBJECT_ID":"2023-028BB","EPOCH":"2025-08-09T13:44:54.360960","MEAN_MOTION":14.98323385,"ECCENTRICITY":0.0003106,"INCLINATION":70.0005,"RA_OF_ASC_NODE":19.2574,"ARG_OF_PERICENTER":269.6545,"MEAN_ANOMALY":90.4258,"EPHEMERIS_TYPE":0,"CLASSIFICATION_TYPE":"U","NORAD_CAT_ID":55790,"ELEMENT_SET_NO":999,"REV_AT_EPOCH":13525,"BSTAR":-4.8729e-5,"MEAN_MOTION_DOT":-6.74e-6,"MEAN_MOTION_DDOT":0},{"OBJECT_NAME":"STARLINK-5807","OBJECT_ID":"2023-028BC","EPOCH":"2025-08-09T14:02:42.878400","MEAN_MOTION":14.98332616,"ECCENTRICITY":0.0002963,"INCLINATION":70.0008,"RA_OF_ASC_NODE":19.3014,"ARG_OF_PERICENTER":266.4328,"MEAN_ANOMALY":93.6492,"EPHEMERIS_TYPE":0,"CLASSIFICATION_TYPE":"U","NORAD_CAT_ID":55791,"ELEMENT_SET_NO":999,"REV_AT_EPOCH":13525,"BSTAR":6.1988e-5,"MEAN_MOTION_DOT":6.47e-6,"MEAN_MOTION_DDOT":0},{"OBJECT_NAME":"STARLINK-5856","OBJECT_ID":"2023-037A","EPOCH":"2025-08-09T20:40:56.800128","MEAN_MOTION":14.98329492,"ECCENTRICITY":0.0002688,"INCLINATION":70.0001,"RA_OF_ASC_NODE":118.7052,"ARG_OF_PERICENTER":271.4835,"MEAN_ANOMALY":88.6016,"EPHEMERIS_TYPE":0,"CLASSIFICATION_TYPE":"U","NORAD_CAT_ID":55914,"ELEMENT_SET_NO":999,"REV_AT_EPOCH":13209,"BSTAR":0.00017153,"MEAN_MOTION_DOT":1.954e-5,"MEAN_MOTION_DDOT":0},{"OBJECT_NAME":"STARLINK-5859","OBJECT_ID":"2023-037B","EPOCH":"2025-08-09T20:16:52.472064","MEAN_MOTION":14.98343534,"ECCENTRICITY":0.000268,"INCLINATION":69.9998,"RA_OF_ASC_NODE":118.6447,"ARG_OF_PERICENTER":271.4709,"MEAN_ANOMALY":88.6143,"EPHEMERIS_TYPE":0,"CLASSIFICATION_TYPE":"U","NORAD_CAT_ID":55915,"ELEMENT_SET_NO":999,"REV_AT_EPOCH":13209,"BSTAR":-0.00015282,"MEAN_MOTION_DOT":-1.916e-5,"MEAN_MOTION_DDOT":0},{"OBJECT_NAME":"STARLINK-5796","OBJECT_ID":"2023-037C","EPOCH":"2025-08-09T10:58:06.272256","MEAN_MOTION":14.983328,"ECCENTRICITY":0.0003015,"INCLINATION":70.0003,"RA_OF_ASC_NODE":119.6993,"ARG_OF_PERICENTER":267.8151,"MEAN_ANOMALY":92.2663,"EPHEMERIS_TYPE":0,"CLASSIFICATION_TYPE":"U","NORAD_CAT_ID":55916,"ELEMENT_SET_NO":999,"REV_AT_EPOCH":13169,"BSTAR":2.5484e-5,"MEAN_MOTION_DOT":2.11e-6,"MEAN_MOTION_DDOT":0},{"OBJECT_NAME":"STARLINK-5855","OBJECT_ID":"2023-037D","EPOCH":"2025-08-09T22:00:01.999584","MEAN_MOTION":15.6082403,"ECCENTRICITY":0.0007445,"INCLINATION":69.976,"RA_OF_ASC_NODE":54.0736,"ARG_OF_PERICENTER":119.6578,"MEAN_ANOMALY":178.6844,"EPHEMERIS_TYPE":0,"CLASSIFICATION_TYPE":"U","NORAD_CAT_ID":55917,"ELEMENT_SET_NO":999,"REV_AT_EPOCH":13370,"BSTAR":0.0026498,"MEAN_MOTION_DOT":0.00228132,"MEAN_MOTION_DDOT":0},{"OBJECT_NAME":"STARLINK-5867","OBJECT_ID":"2023-037E","EPOCH":"2025-08-08T22:03:01.274400","MEAN_MOTION":14.98330607,"ECCENTRICITY":0.000287,"INCLINATION":70.0004,"RA_OF_ASC_NODE":121.0315,"ARG_OF_PERICENTER":268.6587,"MEAN_ANOMALY":91.4243,"EPHEMERIS_TYPE":0,"CLASSIFICATION_TYPE":"U","NORAD_CAT_ID":55918,"ELEMENT_SET_NO":999,"REV_AT_EPOCH":13195,"BSTAR":-6.6805e-6,"MEAN_MOTION_DOT":-1.73e-6,"MEAN_MOTION_DDOT":0},{"OBJECT_NAME":"STARLINK-5871","OBJECT_ID":"2023-037F","EPOCH":"2025-08-09T20:17:07.273248","MEAN_MOTION":14.98324684,"ECCENTRICITY":0.0002862,"INCLINATION":70.0001,"RA_OF_ASC_NODE":118.645,"ARG_OF_PERICENTER":272.2843,"MEAN_ANOMALY":87.7988,"EPHEMERIS_TYPE":0,"CLASSIFICATION_TYPE":"U","NORAD_CAT_ID":55919,"ELEMENT_SET_NO":999,"REV_AT_EPOCH":13209,"BSTAR":5.7889e-6,"MEAN_MOTION_DOT":-2.4e-7,"MEAN_MOTION_DDOT":0},{"OBJECT_NAME":"STARLINK-5862","OBJECT_ID":"2023-037G","EPOCH":"2025-08-09T09:09:37.453536","MEAN_MOTION":14.98333547,"ECCENTRICITY":0.0002643,"INCLINATION":70,"RA_OF_ASC_NODE":99.9595,"ARG_OF_PERICENTER":268.8945,"MEAN_ANOMALY":91.1911,"EPHEMERIS_TYPE":0,"CLASSIFICATION_TYPE":"U","NORAD_CAT_ID":55920,"ELEMENT_SET_NO":999,"REV_AT_EPOCH":13217,"BSTAR":3.7944e-5,"MEAN_MOTION_DOT":3.6e-6,"MEAN_MOTION_DDOT":0},{"OBJECT_NAME":"STARLINK-5861","OBJECT_ID":"2023-037H","EPOCH":"2025-08-09T21:28:57.897120","MEAN_MOTION":14.98340072,"ECCENTRICITY":0.0002651,"INCLINATION":69.9997,"RA_OF_ASC_NODE":118.4173,"ARG_OF_PERICENTER":270.0092,"MEAN_ANOMALY":90.0763,"EPHEMERIS_TYPE":0,"CLASSIFICATION_TYPE":"U","NORAD_CAT_ID":55921,"ELEMENT_SET_NO":999,"REV_AT_EPOCH":13210,"BSTAR":-2.876e-5,"MEAN_MOTION_DOT":-4.36e-6,"MEAN_MOTION_DDOT":0},{"OBJECT_NAME":"STARLINK-5863","OBJECT_ID":"2023-037J","EPOCH":"2025-08-09T21:34:58.895328","MEAN_MOTION":14.98330236,"ECCENTRICITY":0.0002843,"INCLINATION":70.0005,"RA_OF_ASC_NODE":118.4339,"ARG_OF_PERICENTER":265.8039,"MEAN_ANOMALY":94.2795,"EPHEMERIS_TYPE":0,"CLASSIFICATION_TYPE":"U","NORAD_CAT_ID":55922,"ELEMENT_SET_NO":999,"REV_AT_EPOCH":13210,"BSTAR":3.6527e-5,"MEAN_MOTION_DOT":3.43e-6,"MEAN_MOTION_DDOT":0},{"OBJECT_NAME":"STARLINK-5854","OBJECT_ID":"2023-037K","EPOCH":"2025-08-09T20:04:52.448160","MEAN_MOTION":14.98335401,"ECCENTRICITY":0.0002622,"INCLINATION":69.9998,"RA_OF_ASC_NODE":118.6151,"ARG_OF_PERICENTER":275.0309,"MEAN_ANOMALY":85.0551,"EPHEMERIS_TYPE":0,"CLASSIFICATION_TYPE":"U","NORAD_CAT_ID":55923,"ELEMENT_SET_NO":999,"REV_AT_EPOCH":13209,"BSTAR":0.00014971,"MEAN_MOTION_DOT":1.694e-5,"MEAN_MOTION_DDOT":0},{"OBJECT_NAME":"STARLINK-5849","OBJECT_ID":"2023-037L","EPOCH":"2025-08-09T21:52:42.295296","MEAN_MOTION":14.98323056,"ECCENTRICITY":0.0002828,"INCLINATION":69.9996,"RA_OF_ASC_NODE":98.5967,"ARG_OF_PERICENTER":274.333,"MEAN_ANOMALY":85.7506,"EPHEMERIS_TYPE":0,"CLASSIFICATION_TYPE":"U","NORAD_CAT_ID":55924,"ELEMENT_SET_NO":999,"REV_AT_EPOCH":13259,"BSTAR":0.00012228,"MEAN_MOTION_DOT":1.366e-5,"MEAN_MOTION_DDOT":0}]
